$$SOE
2459580.500000000, A.D. 2022-Jan-01 00:00:00.0000, -3.000021344861688E+08, -2.078906666944922E+08, -2.382787407244065E+07,
2459587.500000000, A.D. 2022-Jan-08 00:00:00.0000, -2.910945118809042E+08, -2.159479371923382E+08, -2.244110667047866E+07,
2459594.500000000, A.D. 2022-Jan-15 00:00:00.0000, -2.818918858637955E+08, -2.237862745455463E+08, -2.103159525239865E+07,
2459601.500000000, A.D. 2022-Jan-22 00:00:00.0000, -2.723973367437083E+08, -2.313927767615514E+08, -1.960030326388498E+07,
2459608.500000000, A.D. 2022-Jan-29 00:00:00.0000, -2.626145353870469E+08, -2.387543308716210E+08, -1.814827050966658E+07,
2459615.500000000, A.D. 2022-Feb-05 00:00:00.0000, -2.525477801136098E+08, -2.458576382401391E+08, -1.667661573226799E+07,
2459622.500000000, A.D. 2022-Feb-12 00:00:00.0000, -2.422020314070489E+08, -2.526892447201842E+08, -1.518653929496355E+07,
2459629.500000000, A.D. 2022-Feb-19 00:00:00.0000, -2.315829454303884E+08, -2.592355735126180E+08, -1.367932560530935E+07,
2459636.500000000, A.D. 2022-Feb-26 00:00:00.0000, -2.206969072734708E+08, -2.654829616548515E+08, -1.215634516484365E+07,
2459643.500000000, A.D. 2022-Mar-05 00:00:00.0000, -2.095510633376603E+08, -2.714177009308547E+08, -1.061905625289096E+07,
2459650.500000000, A.D. 2022-Mar-12 00:00:00.0000, -1.981533521515883E+08, -2.770260834077594E+08, -9.069006209915385E+06,
2459657.500000000, A.D. 2022-Mar-19 00:00:00.0000, -1.865125330174469E+08, -2.822944516653216E+08, -7.507832261296034E+06,
2459664.500000000, A.D. 2022-Mar-26 00:00:00.0000, -1.746382118934751E+08, -2.872092537589239E+08, -5.937261817561507E+06,
2459671.500000000, A.D. 2022-Apr-02 00:00:00.0000, -1.625408638313006E+08, -2.917571029332765E+08, -4.359112193055734E+06,
2459678.500000000, A.D. 2022-Apr-09 00:00:00.0000, -1.502318510434745E+08, -2.959248419597052E+08, -2.775289698407844E+06,
2459685.500000000, A.D. 2022-Apr-16 00:00:00.0000, -1.377234355594755E+08, -2.996996112314734E+08, -1.187788019162253E+06,
2459692.500000000, A.D. 2022-Apr-23 00:00:00.0000, -1.250287870366327E+08, -3.030689192284619E+08, 4.013143867511004E+05,
2459699.500000000, A.D. 2022-Apr-30 00:00:00.0000, -1.121619868954680E+08, -3.060207171929769E+08, 1.989857916988671E+06,
2459706.500000000, A.D. 2022-May-07 00:00:00.0000, -9.913802503906453E+07, -3.085434794792930E+08, 3.575606085515678E+06,
2459713.500000000, A.D. 2022-May-14 00:00:00.0000, -8.597278713020548E+07, -3.106262859084840E+08, 5.156250578791857E+06,
2459720.500000000, A.D. 2022-May-21 00:00:00.0000, -7.268303387491651E+07, -3.122589046123539E+08, 6.729417387201354E+06,
2459727.500000000, A.D. 2022-May-28 00:00:00.0000, -5.928637228181530E+07, -3.134318754446313E+08, 8.292673994914815E+06,
2459734.500000000, A.D. 2022-Jun-04 00:00:00.0000, -4.580121820775048E+07, -3.141365932772501E+08, 9.843537578044310E+06,
2459741.500000000, A.D. 2022-Jun-11 00:00:00.0000, -3.224674975274268E+07, -3.143653900813433E+08, 1.137948417944348E+07,
2459748.500000000, A.D. 2022-Jun-18 00:00:00.0000, -1.864285131466119E+07, -3.141116145961307E+08, 1.289795881787843E+07,
2459755.500000000, A.D. 2022-Jun-25 00:00:00.0000, -5.010048285866324E+06, -3.133697083732618E+08, 1.439638646448572E+07,
2459762.500000000, A.D. 2022-Jul-02 00:00:00.0000, 8.630567550008137E+06, -3.121352769799308E+08, 1.587218378504910E+07,
2459769.500000000, A.D. 2022-Jul-09 00:00:00.0000, 2.225742192670194E+07, -3.104051548943139E+08, 1.732277152073415E+07,
2459776.500000000, A.D. 2022-Jul-16 00:00:00.0000, 3.584855066899061E+07, -3.081774617489980E+08, 1.874558747360642E+07,
2459783.500000000, A.D. 2022-Jul-23 00:00:00.0000, 4.938169794372420E+07, -3.054516486457009E+08, 2.013810015830053E+07,
2459790.500000000, A.D. 2022-Jul-30 00:00:00.0000, 6.283441928501030E+07, -3.022285367935028E+08, 2.149782267417820E+07,
2459797.500000000, A.D. 2022-Aug-06 00:00:00.0000, 7.618419182099736E+07, -2.985103468576047E+08, 2.282232634350580E+07,
2459804.500000000, A.D. 2022-Aug-13 00:00:00.0000, 8.940852954305077E+07, -2.943007154695312E+08, 2.410925422951090E+07,
2459811.500000000, A.D. 2022-Aug-20 00:00:00.0000, 1.024851005762746E+08, -2.896046988037058E+08, 2.535633444449478E+07,
2459818.500000000, A.D. 2022-Aug-27 00:00:00.0000, 1.153918449484352E+08, -2.844287635707810E+08, 2.656139298863243E+07,
2459825.500000000, A.D. 2022-Sep-03 00:00:00.0000, 1.281070914740653E+08, -2.787807654051079E+08, 2.772236589842071E+07,
2459832.500000000, A.D. 2022-Sep-10 00:00:00.0000, 1.406096721944338E+08, -2.726699147428573E+08, 2.883731051890628E+07,
2459839.500000000, A.D. 2022-Sep-17 00:00:00.0000, 1.528790327797739E+08, -2.661067305666743E+08, 2.990441573155046E+07,
2459846.500000000, A.D. 2022-Sep-24 00:00:00.0000, 1.648953374046803E+08, -2.591029826881639E+08, 3.092201098195106E+07,
2459853.500000000, A.D. 2022-Oct-01 00:00:00.0000, 1.766395669046710E+08, -2.516716234449849E+08, 3.188857396253326E+07,
2459860.500000000, A.D. 2022-Oct-08 00:00:00.0000, 1.880936093415657E+08, -2.438267093568892E+08, 3.280273686322188E+07,
2459867.500000000, A.D. 2022-Oct-15 00:00:00.0000, 1.992403409473999E+08, -2.355833127842905E+08, 3.366329131025196E+07,
2459874.500000000, A.D. 2022-Oct-22 00:00:00.0000, 2.100636943735529E+08, -2.269574266496911E+08, 3.446919202063447E+07,
2459881.500000000, A.D. 2022-Oct-29 00:00:00.0000, 2.205487160791494E+08, -2.179658662842722E+08, 3.521955872519676E+07,
2459888.500000000, A.D. 2022-Nov-05 00:00:00.0000, 2.306816145346441E+08, -2.086261671841623E+08, 3.591367641598792E+07,
2459895.500000000, A.D. 2022-Nov-12 00:00:00.0000, 2.404497970899193E+08, -1.989564789511420E+08, 3.655099425462956E+07,
2459902.500000000, A.D. 2022-Nov-19 00:00:00.0000, 2.498418948290955E+08, -1.889754578857121E+08, 3.713112320672871E+07,
2459909.500000000, A.D. 2022-Nov-26 00:00:00.0000, 2.588477759294966E+08, -1.787021600775524E+08, 3.765383244371337E+07,
2459916.500000000, A.D. 2022-Dec-03 00:00:00.0000, 2.674585481398035E+08, -1.681559363551371E+08, 3.811904461107145E+07,
2459923.500000000, A.D. 2022-Dec-10 00:00:00.0000, 2.756665510404244E+08, -1.573563303029283E+08, 3.852683008884478E+07,
2459930.500000000, A.D. 2022-Dec-17 00:00:00.0000, 2.834653388673198E+08, -1.463229804555412E+08, 3.887740037751768E+07,
2459937.500000000, A.D. 2022-Dec-24 00:00:00.0000, 2.908496548719440E+08, -1.350755276617602E+08, 3.917110073537419E+07,
2459944.500000000, A.D. 2022-Dec-31 00:00:00.0000, 2.978153985150326E+08, -1.236335282706514E+08, 3.940840218501371E+07,
2459951.500000000, A.D. 2023-Jan-07 00:00:00.0000, 3.043595866091429E+08, -1.120163727709564E+08, 3.958989309709536E+07,
2459958.500000000, A.D. 2023-Jan-14 00:00:00.0000, 3.104803074562038E+08, -1.002432098242733E+08, 3.971627070812342E+07,
2459965.500000000, A.D. 2023-Jan-21 00:00:00.0000, 3.161766683336388E+08, -8.833287914603345E+07, 3.978833249559217E+07,
2459972.500000000, A.D. 2023-Jan-28 00:00:00.0000, 3.214487409644704E+08, -7.630385355567345E+07, 3.980696716903307E+07,
2459979.500000000, A.D. 2023-Feb-04 00:00:00.0000, 3.262975056967112E+08, -6.417418716014075E+07, 3.977314564726754E+07,
2459986.500000000, A.D. 2023-Feb-11 00:00:00.0000, 3.307247934820854E+08, -5.196146974858706E+07, 3.968791226720595E+07,
2459993.500000000, A.D. 2023-Feb-18 00:00:00.0000, 3.347332264073093E+08, -3.968278801608095E+07, 3.955237624811931E+07,
2460000.500000000, A.D. 2023-Feb-25 00:00:00.0000, 3.383261577752147E+08, -2.735469349631533E+07, 3.936770344546689E+07,
2460007.500000000, A.D. 2023-Mar-04 00:00:00.0000, 3.415076124855468E+08, -1.499317683840754E+07, 3.913510844340049E+07,
2460014.500000000, A.D. 2023-Mar-11 00:00:00.0000, 3.442822283058443E+08, -2.613648030645492E+06, 3.885584702733152E+07,
2460021.500000000, A.D. 2023-Mar-18 00:00:00.0000, 3.466551985587245E+08, 9.769077811348822E+06, 3.853120906102914E+07,
2460028.500000000, A.D. 2023-Mar-25 00:00:00.0000, 3.486322168284368E+08, 2.214078949722633E+07, 3.816251176850234E+07,
2460035.500000000, A.D. 2023-Apr-01 00:00:00.0000, 3.502194244321989E+08, 3.448788451034176E+07, 3.775109342690346E+07,
2460042.500000000, A.D. 2023-Apr-08 00:00:00.0000, 3.514233602910632E+08, 4.679737114264798E+07, 3.729830763280949E+07,
2460049.500000000, A.D. 2023-Apr-15 00:00:00.0000, 3.522509110586795E+08, 5.905686736754898E+07, 3.680551826768051E+07,
2460056.500000000, A.D. 2023-Apr-22 00:00:00.0000, 3.527092634553159E+08, 7.125459383388865E+07, 3.627409474208425E+07,
2460063.500000000, A.D. 2023-Apr-29 00:00:00.0000, 3.528058616198703E+08, 8.337936364953974E+07, 3.570540743961902E+07,
2460070.500000000, A.D. 2023-May-06 00:00:00.0000, 3.525483677535512E+08, 9.542057113139232E+07, 3.510082365221936E+07,
2460077.500000000, A.D. 2023-May-13 00:00:00.0000, 3.519446250775747E+08, 1.073681789970492E+08, 3.446170400579797E+07,
2460084.500000000, A.D. 2023-May-20 00:00:00.0000, 3.510026233062699E+08, 1.192127038469785E+08, 3.378939929453135E+07,
2460091.500000000, A.D. 2023-May-27 00:00:00.0000, 3.497304667693289E+08, 1.309452002184739E+08, 3.308524768172254E+07,
2460098.500000000, A.D. 2023-Jun-03 00:00:00.0000, 3.481363451594434E+08, 1.425572435193431E+08, 3.235057224105588E+07,
2460105.500000000, A.D. 2023-Jun-10 00:00:00.0000, 3.462285068310622E+08, 1.540409120812662E+08, 3.158667881139369E+07,
2460112.500000000, A.D. 2023-Jun-17 00:00:00.0000, 3.440152346290942E+08, 1.653887684991334E+08, 3.079485412846835E+07,
2460119.500000000, A.D. 2023-Jun-24 00:00:00.0000, 3.415048244489901E+08, 1.765938405115848E+08, 2.997636418528361E+07,
2460126.500000000, A.D. 2023-Jul-01 00:00:00.0000, 3.387055666551033E+08, 1.876496024236484E+08, 2.913245284221130E+07,
2460133.500000000, A.D. 2023-Jul-08 00:00:00.0000, 3.356257285496308E+08, 1.985499580447650E+08, 2.826434088477814E+07,
2460140.500000000, A.D. 2023-Jul-15 00:00:00.0000, 3.322735364858057E+08, 2.092892224477108E+08, 2.737322539491813E+07,
2460147.500000000, A.D. 2023-Jul-22 00:00:00.0000, 3.286571610229380E+08, 2.198621016258209E+08, 2.646027900866011E+07,
$$EOE